[{"OBJECT_NAME":"STARLINK-35889","OBJECT_ID":"2025-303AC","EPOCH":"2026-03-09T23:14:27.235392","MEAN_MOTION":15.2758588,"ECCENTRICITY":7.669e-5,"INCLINATION":43,"RA_OF_ASC_NODE":309.4949,"ARG_OF_PERICENTER":265.206,"MEAN_ANOMALY":94.8704,"EPHEMERIS_TYPE":0,"CLASSIFICATION_TYPE":"U","NORAD_CAT_ID":67189,"ELEMENT_SET_NO":999,"REV_AT_EPOCH":1277,"BSTAR":0.0013174817,"MEAN_MOTION_DOT":0.00036176,"MEAN_MOTION_DDOT":0},{"OBJECT_NAME":"OBJECT L","OBJECT_ID":"2024-024L","EPOCH":"2026-03-09T22:36:05.522976","MEAN_MOTION":15.29373491,"ECCENTRICITY":0.00073185,"INCLINATION":97.3169,"RA_OF_ASC_NODE":137.7038,"ARG_OF_PERICENTER":167.6369,"MEAN_ANOMALY":192.5052,"EPHEMERIS_TYPE":0,"CLASSIFICATION_TYPE":"U","NORAD_CAT_ID":58927,"ELEMENT_SET_NO":999,"REV_AT_EPOCH":9318,"BSTAR":0.00043092344,"MEAN_MOTION_DOT":0.00012217,"MEAN_MOTION_DDOT":0}]
